{
  "type": "FeatureCollection",
  "features": [
    {
      "type": "Feature",
      "properties": {
        "norad_id": 40730,
        "name": "GPS BIIF-10 (PRN 08)",
        "group": "gps-ops",
        "lat": 43.632105320204765,
        "lon": -41.910153597274615,
        "alt_km": 19924.11061205433,
        "timestamp": "2025-12-17T19:34:08.297481+00:00",
        "meta_object_name": "GPS BIIF-10 (PRN 08)",
        "meta_object_id": "2015-033A",
        "meta_epoch": "2025-12-16T17:44:20.711040",
        "meta_mean_motion": 2.00565512,
        "meta_eccentricity": 0.01112183,
        "meta_inclination": 54.1271,
        "meta_ra_of_asc_node": 274.6083,
        "meta_arg_of_pericenter": 26.9056,
        "meta_mean_anomaly": 333.6857,
        "meta_ephemeris_type": 0,
        "meta_classification_type": "U",
        "meta_norad_cat_id": 40730,
        "meta_element_set_no": 999,
        "meta_rev_at_epoch": 7633,
        "meta_bstar": 0,
        "meta_mean_motion_dot": -5.1e-07,
        "meta_mean_motion_ddot": 0,
        "tle_line1": "1 40730U 15033A   25350.73912860 -.00000051  00000+0  00000+0 0  9992",
        "tle_line2": "2 40730  54.1271 274.6083 0111218  26.9056 333.6857  2.00565512 76338"
      },
      "geometry": {
        "type": "Point",
        "coordinates": [
          -41.910153597274615,
          43.632105320204765
        ]
      }
    },
    {
      "type": "Feature",
      "properties": {
        "norad_id": 41019,
        "name": "GPS BIIF-11 (PRN 10)",
        "group": "gps-ops",
        "lat": 11.678561563299361,
        "lon": 45.58771086038941,
        "alt_km": 20418.281530287506,
        "timestamp": "2025-12-17T19:34:08.297493+00:00",
        "meta_object_name": "GPS BIIF-11 (PRN 10)",
        "meta_object_id": "2015-062A",
        "meta_epoch": "2025-12-17T07:07:49.899648",
        "meta_mean_motion": 2.00567236,
        "meta_eccentricity": 0.01109421,
        "meta_inclination": 56.8354,
        "meta_ra_of_asc_node": 37.826,
        "meta_arg_of_pericenter": 230.0562,
        "meta_mean_anomaly": 129.0226,
        "meta_ephemeris_type": 0,
        "meta_classification_type": "U",
        "meta_norad_cat_id": 41019,
        "meta_element_set_no": 999,
        "meta_rev_at_epoch": 7417,
        "meta_bstar": 0,
        "meta_mean_motion_dot": -7.6e-07,
        "meta_mean_motion_ddot": 0,
        "tle_line1": "1 41019U 15062A   25351.29710532 -.00000076  00000+0  00000+0 0  9996",
        "tle_line2": "2 41019  56.8354  37.8260 0110942 230.0562 129.0226  2.00567236 74171"
      },
      "geometry": {
        "type": "Point",
        "coordinates": [
          45.58771086038941,
          11.678561563299361
        ]
      }
    },
    {
      "type": "Feature",
      "properties": {
        "norad_id": 41328,
        "name": "GPS BIIF-12 (PRN 32)",
        "group": "gps-ops",
        "lat": -35.87896578325783,
        "lon": 66.74921957385814,
        "alt_km": 20105.32073888385,
        "timestamp": "2025-12-17T19:34:08.297505+00:00",
        "meta_object_name": "GPS BIIF-12 (PRN 32)",
        "meta_object_id": "2016-007A",
        "meta_epoch": "2025-12-14T21:16:57.823104",
        "meta_mean_motion": 2.00560623,
        "meta_eccentricity": 0.00922757,
        "meta_inclination": 55.4074,
        "meta_ra_of_asc_node": 96.7717,
        "meta_arg_of_pericenter": 243.6198,
        "meta_mean_anomaly": 115.4149,
        "meta_ephemeris_type": 0,
        "meta_classification_type": "U",
        "meta_norad_cat_id": 41328,
        "meta_element_set_no": 999,
        "meta_rev_at_epoch": 7214,
        "meta_bstar": 0,
        "meta_mean_motion_dot": -3.3e-07,
        "meta_mean_motion_ddot": 0,
        "tle_line1": "1 41328U 16007A   25348.88678036 -.00000033  00000+0  00000+0 0  9995",
        "tle_line2": "2 41328  55.4074  96.7717 0092275 243.6198 115.4149  2.00560623 72143"
      },
      "geometry": {
        "type": "Point",
        "coordinates": [
          66.74921957385814,
          -35.87896578325783
        ]
      }
    },
    {
      "type": "Feature",
      "properties": {
        "norad_id": 43873,
        "name": "GPS BIII-1  (PRN 04)",
        "group": "gps-ops",
        "lat": -22.999010436946747,
        "lon": -63.754645461641,
        "alt_km": 20089.232498854177,
        "timestamp": "2025-12-17T19:34:08.297516+00:00",
        "meta_object_name": "GPS BIII-1  (PRN 04)",
        "meta_object_id": "2018-109A",
        "meta_epoch": "2025-12-15T18:29:34.483200",
        "meta_mean_motion": 2.00553802,
        "meta_eccentricity": 0.00374359,
        "meta_inclination": 55.5688,
        "meta_ra_of_asc_node": 99.4273,
        "meta_arg_of_pericenter": 195.145,
        "meta_mean_anomaly": 336.5518,
        "meta_ephemeris_type": 0,
        "meta_classification_type": "U",
        "meta_norad_cat_id": 43873,
        "meta_element_set_no": 999,
        "meta_rev_at_epoch": 5139,
        "meta_bstar": 0,
        "meta_mean_motion_dot": -3.2e-07,
        "meta_mean_motion_ddot": 0,
        "tle_line1": "1 43873U 18109A   25349.77053800 -.00000032  00000+0  00000+0 0  9991",
        "tle_line2": "2 43873  55.5688  99.4273 0037435 195.1450 336.5518  2.00553802 51399"
      },
      "geometry": {
        "type": "Point",
        "coordinates": [
          -63.754645461641,
          -22.999010436946747
        ]
      }
    },
    {
      "type": "Feature",
      "properties": {
        "norad_id": 44506,
        "name": "GPS BIII-2  (PRN 18)",
        "group": "gps-ops",
        "lat": 53.060294288030924,
        "lon": 93.23221479788558,
        "alt_km": 20185.322437260515,
        "timestamp": "2025-12-17T19:34:08.297528+00:00",
        "meta_object_name": "GPS BIII-2  (PRN 18)",
        "meta_object_id": "2019-056A",
        "meta_epoch": "2025-12-17T03:59:08.759040",
        "meta_mean_motion": 2.00566605,
        "meta_eccentricity": 0.00577134,
        "meta_inclination": 55.7199,
        "meta_ra_of_asc_node": 338.3768,
        "meta_arg_of_pericenter": 198.5058,
        "meta_mean_anomaly": 157.947,
        "meta_ephemeris_type": 0,
        "meta_classification_type": "U",
        "meta_norad_cat_id": 44506,
        "meta_element_set_no": 999,
        "meta_rev_at_epoch": 4641,
        "meta_bstar": 0,
        "meta_mean_motion_dot": -8.7e-07,
        "meta_mean_motion_ddot": 0,
        "tle_line1": "1 44506U 19056A   25351.16607360 -.00000087  00000+0  00000+0 0  9999",
        "tle_line2": "2 44506  55.7199 338.3768 0057713 198.5058 157.9470  2.00566605 46412"
      },
      "geometry": {
        "type": "Point",
        "coordinates": [
          93.23221479788558,
          53.060294288030924
        ]
      }
    },
    {
      "type": "Feature",
      "properties": {
        "norad_id": 45854,
        "name": "GPS BIII-3  (PRN 23)",
        "group": "gps-ops",
        "lat": 38.97395055935114,
        "lon": 68.31127994325175,
        "alt_km": 20323.24522621721,
        "timestamp": "2025-12-17T19:34:08.297539+00:00",
        "meta_object_name": "GPS BIII-3  (PRN 23)",
        "meta_object_id": "2020-041A",
        "meta_epoch": "2025-12-17T06:02:11.568192",
        "meta_mean_motion": 2.00562016,
        "meta_eccentricity": 0.00605926,
        "meta_inclination": 56.5499,
        "meta_ra_of_asc_node": 36.0099,
        "meta_arg_of_pericenter": 203.5861,
        "meta_mean_anomaly": 158.5614,
        "meta_ephemeris_type": 0,
        "meta_classification_type": "U",
        "meta_norad_cat_id": 45854,
        "meta_element_set_no": 999,
        "meta_rev_at_epoch": 4039,
        "meta_bstar": 0,
        "meta_mean_motion_dot": -7.7e-07,
        "meta_mean_motion_ddot": 0,
        "tle_line1": "1 45854U 20041A   25351.25152278 -.00000077  00000+0  00000+0 0  9994",
        "tle_line2": "2 45854  56.5499  36.0099 0060592 203.5861 158.5614  2.00562016 40398"
      },
      "geometry": {
        "type": "Point",
        "coordinates": [
          68.31127994325175,
          38.97395055935114
        ]
      }
    },
    {
      "type": "Feature",
      "properties": {
        "norad_id": 46826,
        "name": "GPS BIII-4  (PRN 14)",
        "group": "gps-ops",
        "lat": 16.330877283198262,
        "lon": -129.56677198070184,
        "alt_km": 20352.031709146453,
        "timestamp": "2025-12-17T19:34:08.297550+00:00",
        "meta_object_name": "GPS BIII-4  (PRN 14)",
        "meta_object_id": "2020-078A",
        "meta_epoch": "2025-12-16T01:06:13.902336",
        "meta_mean_motion": 2.00566891,
        "meta_eccentricity": 0.00647559,
        "meta_inclination": 54.0145,
        "meta_ra_of_asc_node": 218.2068,
        "meta_arg_of_pericenter": 203.3837,
        "meta_mean_anomaly": 339.3927,
        "meta_ephemeris_type": 0,
        "meta_classification_type": "U",
        "meta_norad_cat_id": 46826,
        "meta_element_set_no": 999,
        "meta_rev_at_epoch": 3783,
        "meta_bstar": 0,
        "meta_mean_motion_dot": 6.7e-07,
        "meta_mean_motion_ddot": 0,
        "tle_line1": "1 46826U 20078A   25350.04599424  .00000067  00000+0  00000+0 0  9996",
        "tle_line2": "2 46826  54.0145 218.2068 0064755 203.3837 339.3927  2.00566891 37831"
      },
      "geometry": {
        "type": "Point",
        "coordinates": [
          -129.56677198070184,
          16.330877283198262
        ]
      }
    }
  ]
}